{
  "type": "FeatureCollection",
  "features": [
    {
      "type": "Feature",
      "properties": {
        "norad_id": 66903,
        "name": "STARLINK-36077",
        "group": "last-30-days",
        "lat": -52.564993567845775,
        "lon": -20.83986628630828,
        "alt_km": 311.91436376826823,
        "timestamp": "2025-12-15T22:44:27.662534+00:00",
        "meta_object_name": "STARLINK-36077",
        "meta_object_id": "2025-283AB",
        "meta_epoch": "2025-12-15T07:59:27.022560",
        "meta_mean_motion": 15.88895398,
        "meta_eccentricity": 3.116e-05,
        "meta_inclination": 53.155,
        "meta_ra_of_asc_node": 60.6712,
        "meta_arg_of_pericenter": 69.0801,
        "meta_mean_anomaly": 291.0259,
        "meta_ephemeris_type": 0,
        "meta_classification_type": "U",
        "meta_norad_cat_id": 66903,
        "meta_element_set_no": 999,
        "meta_rev_at_epoch": 286,
        "meta_bstar": -0.0015534739,
        "meta_mean_motion_dot": -0.00430662,
        "meta_mean_motion_ddot": 0,
        "tle_line1": "1 66903U 25283AB  25349.33295165 -.00430662  00000+0 -15535-2 0  9994",
        "tle_line2": "2 66903  53.1550  60.6712 0000311  69.0801 291.0259 15.88895398  2864"
      },
      "geometry": {
        "type": "Point",
        "coordinates": [
          -20.83986628630828,
          -52.564993567845775
        ]
      }
    },
    {
      "type": "Feature",
      "properties": {
        "norad_id": 66904,
        "name": "STARLINK-36059",
        "group": "last-30-days",
        "lat": -52.04289895919384,
        "lon": -16.45677970575023,
        "alt_km": 311.71995908483404,
        "timestamp": "2025-12-15T22:44:27.662544+00:00",
        "meta_object_name": "STARLINK-36059",
        "meta_object_id": "2025-283AC",
        "meta_epoch": "2025-12-15T06:28:13.838304",
        "meta_mean_motion": 15.89064506,
        "meta_eccentricity": 9.991e-05,
        "meta_inclination": 53.1548,
        "meta_ra_of_asc_node": 60.9869,
        "meta_arg_of_pericenter": 18.9453,
        "meta_mean_anomaly": 341.1611,
        "meta_ephemeris_type": 0,
        "meta_classification_type": "U",
        "meta_norad_cat_id": 66904,
        "meta_element_set_no": 999,
        "meta_rev_at_epoch": 285,
        "meta_bstar": -0.0017376251,
        "meta_mean_motion_dot": -0.00483028,
        "meta_mean_motion_ddot": 0,
        "tle_line1": "1 66904U 25283AC  25349.26960461 -.00483028  00000+0 -17376-2 0  9994",
        "tle_line2": "2 66904  53.1548  60.9869 0000999  18.9453 341.1611 15.89064506  2854"
      },
      "geometry": {
        "type": "Point",
        "coordinates": [
          -16.45677970575023,
          -52.04289895919384
        ]
      }
    },
    {
      "type": "Feature",
      "properties": {
        "norad_id": 66905,
        "name": "STARLINK-36075",
        "group": "last-30-days",
        "lat": -51.4946432264657,
        "lon": -12.938977879358156,
        "alt_km": 311.6272062099242,
        "timestamp": "2025-12-15T22:44:27.662555+00:00",
        "meta_object_name": "STARLINK-36075",
        "meta_object_id": "2025-283AD",
        "meta_epoch": "2025-12-15T06:27:40.736736",
        "meta_mean_motion": 15.89090779,
        "meta_eccentricity": 9.099e-05,
        "meta_inclination": 53.155,
        "meta_ra_of_asc_node": 60.9845,
        "meta_arg_of_pericenter": 20.5581,
        "meta_mean_anomaly": 339.5481,
        "meta_ephemeris_type": 0,
        "meta_classification_type": "U",
        "meta_norad_cat_id": 66905,
        "meta_element_set_no": 999,
        "meta_rev_at_epoch": 285,
        "meta_bstar": -0.0017466786,
        "meta_mean_motion_dot": -0.00486013,
        "meta_mean_motion_ddot": 0,
        "tle_line1": "1 66905U 25283AD  25349.26922149 -.00486013  00000+0 -17467-2 0  9994",
        "tle_line2": "2 66905  53.1550  60.9845 0000909  20.5581 339.5481 15.89090779  2851"
      },
      "geometry": {
        "type": "Point",
        "coordinates": [
          -12.938977879358156,
          -51.4946432264657
        ]
      }
    },
    {
      "type": "Feature",
      "properties": {
        "norad_id": 66906,
        "name": "1998-067XS",
        "group": "last-30-days",
        "lat": -17.478509811081462,
        "lon": 112.05857998229173,
        "alt_km": 418.41453809072027,
        "timestamp": "2025-12-15T22:44:27.662565+00:00",
        "meta_object_name": "1998-067XS",
        "meta_object_id": "1998-067XS",
        "meta_epoch": "2025-12-15T02:43:53.639328",
        "meta_mean_motion": 15.50707714,
        "meta_eccentricity": 0.00033588,
        "meta_inclination": 51.6305,
        "meta_ra_of_asc_node": 130.643,
        "meta_arg_of_pericenter": 213.849,
        "meta_mean_anomaly": 146.2285,
        "meta_ephemeris_type": 0,
        "meta_classification_type": "U",
        "meta_norad_cat_id": 66906,
        "meta_element_set_no": 999,
        "meta_rev_at_epoch": 198,
        "meta_bstar": 0.00033919377,
        "meta_mean_motion_dot": 0.00019441,
        "meta_mean_motion_ddot": 0,
        "tle_line1": "1 66906U 98067XS  25349.11381527  .00019441  00000+0  33919-3 0  9994",
        "tle_line2": "2 66906  51.6305 130.6430 0003358 213.8490 146.2285 15.50707714  1985"
      },
      "geometry": {
        "type": "Point",
        "coordinates": [
          112.05857998229173,
          -17.478509811081462
        ]
      }
    },
    {
      "type": "Feature",
      "properties": {
        "norad_id": 66907,
        "name": "1998-067XT",
        "group": "last-30-days",
        "lat": 3.4142196500440787,
        "lon": 129.1597271150758,
        "alt_km": 412.99488925436526,
        "timestamp": "2025-12-15T22:44:27.662575+00:00",
        "meta_object_name": "1998-067XT",
        "meta_object_id": "1998-067XT",
        "meta_epoch": "2025-12-15T05:43:16.597920",
        "meta_mean_motion": 15.51783963,
        "meta_eccentricity": 0.00040993,
        "meta_inclination": 51.6297,
        "meta_ra_of_asc_node": 129.9756,
        "meta_arg_of_pericenter": 241.5907,
        "meta_mean_anomaly": 118.467,
        "meta_ephemeris_type": 0,
        "meta_classification_type": "U",
        "meta_norad_cat_id": 66907,
        "meta_element_set_no": 999,
        "meta_rev_at_epoch": 200,
        "meta_bstar": 0.00079982279,
        "meta_mean_motion_dot": 0.00048484,
        "meta_mean_motion_ddot": 0,
        "tle_line1": "1 66907U 98067XT  25349.23838655  .00048484  00000+0  79982-3 0  9996",
        "tle_line2": "2 66907  51.6297 129.9756 0004099 241.5907 118.4670 15.51783963  2006"
      },
      "geometry": {
        "type": "Point",
        "coordinates": [
          129.1597271150758,
          3.4142196500440787
        ]
      }
    },
    {
      "type": "Feature",
      "properties": {
        "norad_id": 66908,
        "name": "1998-067XU",
        "group": "last-30-days",
        "lat": 5.654073873535659,
        "lon": 130.9430268090696,
        "alt_km": 412.600380003214,
        "timestamp": "2025-12-15T22:44:27.662585+00:00",
        "meta_object_name": "1998-067XU",
        "meta_object_id": "1998-067XU",
        "meta_epoch": "2025-12-15T02:37:08.426784",
        "meta_mean_motion": 15.51862591,
        "meta_eccentricity": 0.00042185,
        "meta_inclination": 51.6293,
        "meta_ra_of_asc_node": 130.6123,
        "meta_arg_of_pericenter": 240.3757,
        "meta_mean_anomaly": 119.6813,
        "meta_ephemeris_type": 0,
        "meta_classification_type": "U",
        "meta_norad_cat_id": 66908,
        "meta_element_set_no": 999,
        "meta_rev_at_epoch": 198,
        "meta_bstar": 0.00082604654,
        "meta_mean_motion_dot": 0.00050243,
        "meta_mean_motion_ddot": 0,
        "tle_line1": "1 66908U 98067XU  25349.10912531  .00050243  00000+0  82605-3 0  9991",
        "tle_line2": "2 66908  51.6293 130.6123 0004218 240.3757 119.6813 15.51862591  1986"
      },
      "geometry": {
        "type": "Point",
        "coordinates": [
          130.9430268090696,
          5.654073873535659
        ]
      }
    },
    {
      "type": "Feature",
      "properties": {
        "norad_id": 66909,
        "name": "SILVERSAT",
        "group": "last-30-days",
        "lat": 8.266196591035701,
        "lon": 133.04570060559917,
        "alt_km": 412.00894478411465,
        "timestamp": "2025-12-15T22:44:27.662595+00:00",
        "meta_object_name": "SILVERSAT",
        "meta_object_id": "1998-067XV",
        "meta_epoch": "2025-12-14T21:58:11.659008",
        "meta_mean_motion": 15.51959159,
        "meta_eccentricity": 0.00041685,
        "meta_inclination": 51.6297,
        "meta_ra_of_asc_node": 131.568,
        "meta_arg_of_pericenter": 239.8452,
        "meta_mean_anomaly": 120.2125,
        "meta_ephemeris_type": 0,
        "meta_classification_type": "U",
        "meta_norad_cat_id": 66909,
        "meta_element_set_no": 999,
        "meta_rev_at_epoch": 195,
        "meta_bstar": 0.00078463431,
        "meta_mean_motion_dot": 0.00047853,
        "meta_mean_motion_ddot": 0,
        "tle_line1": "1 66909U 98067XV  25348.91541272  .00047853  00000+0  78463-3 0  9990",
        "tle_line2": "2 66909  51.6297 131.5680 0004168 239.8452 120.2125 15.51959159  1956"
      },
      "geometry": {
        "type": "Point",
        "coordinates": [
          133.04570060559917,
          8.266196591035701
        ]
      }
    }
  ]
}